[{"OBJECT_NAME":"STARLINK-36163","OBJECT_ID":"2025-293F","EPOCH":"2026-03-09T19:16:57.465696","MEAN_MOTION":14.98323714,"ECCENTRICITY":0.00036157,"INCLINATION":70.0013,"RA_OF_ASC_NODE":94.2216,"ARG_OF_PERICENTER":273.6774,"MEAN_ANOMALY":86.3972,"EPHEMERIS_TYPE":0,"CLASSIFICATION_TYPE":"U","NORAD_CAT_ID":67008,"ELEMENT_SET_NO":999,"REV_AT_EPOCH":1490,"BSTAR":0.00020625941,"MEAN_MOTION_DOT":2.369e-5,"MEAN_MOTION_DDOT":0},{"OBJECT_NAME":"CZ-6A DEB","OBJECT_ID":"2022-151SB","EPOCH":"2026-03-09T22:09:26.196768","MEAN_MOTION":14.85244417,"ECCENTRICITY":0.00728534,"INCLINATION":99.1392,"RA_OF_ASC_NODE":215.607,"ARG_OF_PERICENTER":235.4544,"MEAN_ANOMALY":123.9777,"EPHEMERIS_TYPE":0,"CLASSIFICATION_TYPE":"U","NORAD_CAT_ID":54938,"ELEMENT_SET_NO":999,"REV_AT_EPOCH":17622,"BSTAR":0.0039580306,"MEAN_MOTION_DOT":0.00035713,"MEAN_MOTION_DDOT":0}]
